STARLINK-2361           
1 47901U 21021AT  26046.83076288 -.00000858  00000+0 -16843-4 0  9995
2 47901  53.1601 356.9261 0001900 141.1307 218.9831 15.30196316273074
STARLINK-2363           
1 47903U 21021AV  26046.83523271  .00261653  00000+0  82410-2 0  9997
2 47903  53.1605 356.7911 0001901  52.1626 307.9548 15.31350826273428
STARLINK-2364           
1 47904U 21021AW  26046.83286408  .00002143  00000+0  84504-4 0  9991
2 47904  53.1606 356.8145 0001744  89.3313 270.7887 15.30192257273064
STARLINK-2367           
1 47907U 21021AZ  26046.40546523  .00004609  00000+0  32800-3 0  9994
2 47907  53.0544  21.6555 0001496  94.5366 265.5794 15.06414735272653
STARLINK-2370           
1 47910U 21021BC  26046.91668981  .00889533  00000+0  35925-1 0  9993
2 47910  53.1217   9.0700 0001762  90.9565   9.2327 15.21780743  5846
STARLINK-2371           
1 47911U 21021BD  26046.33335647  .00060693  00000+0  20469-2 0  9996
2 47911  53.1580  24.8389 0001526  72.3381  83.2305 15.30164387  5798
STARLINK-2378           
1 47916U 21021BJ  26046.10800380  .00002873  00000+0  11187-3 0  9991
2 47916  53.1550   0.2304 0001687  73.8133 286.3053 15.29356252272956
STARLINK-2405           
1 47919U 21021BM  26046.91781875  .00000589  00000+0  58439-4 0  9994
2 47919  53.0548  19.3576 0001385  81.8640 278.2506 15.06394693272751
STARLINK-1647           
1 47978U 21024B   26046.91668981  .01103092  00000+0  38108-1 0  9996
2 47978  53.1432  73.4763 0001488  87.6380 233.1789 15.26902036  5785
STARLINK-2303           
1 47981U 21024E   26046.91668981  .00124340  00000+0  49045-2 0  9991
2 47981  53.1308  73.4236 0001321  64.9631 345.4708 15.24621585  5849
STARLINK-2273           
1 47993U 21024S   26046.36907533  .00001222  00000+0  10090-3 0  9994
2 47993  53.0551  36.8204 0001600  79.8439 280.2731 15.06403432271756
STARLINK-2266           
1 47997U 21024W   26046.91668981  .00072537  00000+0  25024-2 0  9999
2 47997  53.1558  47.8365 0001416  90.2433 199.7761 15.29345191  5781
STARLINK-2270           
1 48000U 21024Z   26046.84044139 -.00000927  00000+0 -43354-4 0  9994
2 48000  53.0538 339.9063 0001436 103.1487 256.9662 15.06403235272544
STARLINK-2153           
1 48009U 21024AJ  26046.26897399  .00001326  00000+0  56912-4 0  9999
2 48009  53.1593  53.5437 0001336  90.5051 269.6103 15.30194312271465
STARLINK-2226           
1 48010U 21024AK  26046.91668981  .01237854  00000+0  42709-1 0  9990
2 48010  53.1410  73.4616 0001716  67.1328  22.5523 15.26621590  5784
STARLINK-2285           
1 48019U 21024AU  26046.91668981  .00049853  00000+0  17296-2 0  9992
2 48019  53.1555  47.9412 0001556  84.2618 127.9114 15.29333252  5680
