[{"OBJECT_NAME":"STARLINK-2361","OBJECT_ID":"2021-021AT","EPOCH":"2026-02-15T19:56:17.912832","MEAN_MOTION":15.30196316,"ECCENTRICITY":0.00019004,"INCLINATION":53.1601,"RA_OF_ASC_NODE":356.9261,"ARG_OF_PERICENTER":141.1307,"MEAN_ANOMALY":218.9831,"EPHEMERIS_TYPE":0,"CLASSIFICATION_TYPE":"U","NORAD_CAT_ID":47901,"ELEMENT_SET_NO":999,"REV_AT_EPOCH":27307,"BSTAR":-1.6843458e-5,"MEAN_MOTION_DOT":-8.58e-6,"MEAN_MOTION_DDOT":0},{"OBJECT_NAME":"STARLINK-2363","OBJECT_ID":"2021-021AV","EPOCH":"2026-02-15T20:02:44.106144","MEAN_MOTION":15.31350826,"ECCENTRICITY":0.00019014,"INCLINATION":53.1605,"RA_OF_ASC_NODE":356.7911,"ARG_OF_PERICENTER":52.1626,"MEAN_ANOMALY":307.9548,"EPHEMERIS_TYPE":0,"CLASSIFICATION_TYPE":"U","NORAD_CAT_ID":47903,"ELEMENT_SET_NO":999,"REV_AT_EPOCH":27342,"BSTAR":0.0082409719,"MEAN_MOTION_DOT":0.00261653,"MEAN_MOTION_DDOT":0},{"OBJECT_NAME":"STARLINK-2364","OBJECT_ID":"2021-021AW","EPOCH":"2026-02-15T19:59:19.456512","MEAN_MOTION":15.30192257,"ECCENTRICITY":0.00017441,"INCLINATION":53.1606,"RA_OF_ASC_NODE":356.8145,"ARG_OF_PERICENTER":89.3313,"MEAN_ANOMALY":270.7887,"EPHEMERIS_TYPE":0,"CLASSIFICATION_TYPE":"U","NORAD_CAT_ID":47904,"ELEMENT_SET_NO":999,"REV_AT_EPOCH":27306,"BSTAR":8.4504354e-5,"MEAN_MOTION_DOT":2.143e-5,"MEAN_MOTION_DDOT":0},{"OBJECT_NAME":"STARLINK-2367","OBJECT_ID":"2021-021AZ","EPOCH":"2026-02-15T09:43:52.195872","MEAN_MOTION":15.06414735,"ECCENTRICITY":0.00014966,"INCLINATION":53.0544,"RA_OF_ASC_NODE":21.6555,"ARG_OF_PERICENTER":94.5366,"MEAN_ANOMALY":265.5794,"EPHEMERIS_TYPE":0,"CLASSIFICATION_TYPE":"U","NORAD_CAT_ID":47907,"ELEMENT_SET_NO":999,"REV_AT_EPOCH":27265,"BSTAR":0.00032800445,"MEAN_MOTION_DOT":4.609e-5,"MEAN_MOTION_DDOT":0},{"OBJECT_NAME":"STARLINK-2370","OBJECT_ID":"2021-021BC","EPOCH":"2026-02-15T22:00:01.999584","MEAN_MOTION":15.21780743,"ECCENTRICITY":0.00017623,"INCLINATION":53.1217,"RA_OF_ASC_NODE":9.07,"ARG_OF_PERICENTER":90.9565,"MEAN_ANOMALY":9.2327,"EPHEMERIS_TYPE":0,"CLASSIFICATION_TYPE":"U","NORAD_CAT_ID":47910,"ELEMENT_SET_NO":999,"REV_AT_EPOCH":584,"BSTAR":0.035924618,"MEAN_MOTION_DOT":0.00889533,"MEAN_MOTION_DDOT":0},{"OBJECT_NAME":"STARLINK-2371","OBJECT_ID":"2021-021BD","EPOCH":"2026-02-15T08:00:01.999008","MEAN_MOTION":15.30164387,"ECCENTRICITY":0.0001526,"INCLINATION":53.158,"RA_OF_ASC_NODE":24.8389,"ARG_OF_PERICENTER":72.3381,"MEAN_ANOMALY":83.2305,"EPHEMERIS_TYPE":0,"CLASSIFICATION_TYPE":"U","NORAD_CAT_ID":47911,"ELEMENT_SET_NO":999,"REV_AT_EPOCH":579,"BSTAR":0.0020469,"MEAN_MOTION_DOT":0.00060693,"MEAN_MOTION_DDOT":0},{"OBJECT_NAME":"STARLINK-2378","OBJECT_ID":"2021-021BJ","EPOCH":"2026-02-15T02:35:31.528320","MEAN_MOTION":15.29356252,"ECCENTRICITY":0.00016873,"INCLINATION":53.155,"RA_OF_ASC_NODE":0.2304,"ARG_OF_PERICENTER":73.8133,"MEAN_ANOMALY":286.3053,"EPHEMERIS_TYPE":0,"CLASSIFICATION_TYPE":"U","NORAD_CAT_ID":47916,"ELEMENT_SET_NO":999,"REV_AT_EPOCH":27295,"BSTAR":0.00011187357,"MEAN_MOTION_DOT":2.873e-5,"MEAN_MOTION_DDOT":0},{"OBJECT_NAME":"STARLINK-2405","OBJECT_ID":"2021-021BM","EPOCH":"2026-02-15T22:01:39.540000","MEAN_MOTION":15.06394693,"ECCENTRICITY":0.00013851,"INCLINATION":53.0548,"RA_OF_ASC_NODE":19.3576,"ARG_OF_PERICENTER":81.864,"MEAN_ANOMALY":278.2506,"EPHEMERIS_TYPE":0,"CLASSIFICATION_TYPE":"U","NORAD_CAT_ID":47919,"ELEMENT_SET_NO":999,"REV_AT_EPOCH":27275,"BSTAR":5.843863e-5,"MEAN_MOTION_DOT":5.89e-6,"MEAN_MOTION_DDOT":0},{"OBJECT_NAME":"STARLINK-1647","OBJECT_ID":"2021-024B","EPOCH":"2026-02-15T22:00:01.999584","MEAN_MOTION":15.26902036,"ECCENTRICITY":0.0001488,"INCLINATION":53.1432,"RA_OF_ASC_NODE":73.4763,"ARG_OF_PERICENTER":87.638,"MEAN_ANOMALY":233.1789,"EPHEMERIS_TYPE":0,"CLASSIFICATION_TYPE":"U","NORAD_CAT_ID":47978,"ELEMENT_SET_NO":999,"REV_AT_EPOCH":578,"BSTAR":0.038108243,"MEAN_MOTION_DOT":0.01103092,"MEAN_MOTION_DDOT":0},{"OBJECT_NAME":"STARLINK-2303","OBJECT_ID":"2021-024E","EPOCH":"2026-02-15T22:00:01.999584","MEAN_MOTION":15.24621585,"ECCENTRICITY":0.00013211,"INCLINATION":53.1308,"RA_OF_ASC_NODE":73.4236,"ARG_OF_PERICENTER":64.9631,"MEAN_ANOMALY":345.4708,"EPHEMERIS_TYPE":0,"CLASSIFICATION_TYPE":"U","NORAD_CAT_ID":47981,"ELEMENT_SET_NO":999,"REV_AT_EPOCH":584,"BSTAR":0.0049044561,"MEAN_MOTION_DOT":0.0012434,"MEAN_MOTION_DDOT":0},{"OBJECT_NAME":"STARLINK-2273","OBJECT_ID":"2021-024S","EPOCH":"2026-02-15T08:51:28.108512","MEAN_MOTION":15.06403432,"ECCENTRICITY":0.00016005,"INCLINATION":53.0551,"RA_OF_ASC_NODE":36.8204,"ARG_OF_PERICENTER":79.8439,"MEAN_ANOMALY":280.2731,"EPHEMERIS_TYPE":0,"CLASSIFICATION_TYPE":"U","NORAD_CAT_ID":47993,"ELEMENT_SET_NO":999,"REV_AT_EPOCH":27175,"BSTAR":0.0001009012,"MEAN_MOTION_DOT":1.222e-5,"MEAN_MOTION_DDOT":0},{"OBJECT_NAME":"STARLINK-2266","OBJECT_ID":"2021-024W","EPOCH":"2026-02-15T22:00:01.999584","MEAN_MOTION":15.29345191,"ECCENTRICITY":0.00014163,"INCLINATION":53.1558,"RA_OF_ASC_NODE":47.8365,"ARG_OF_PERICENTER":90.2433,"MEAN_ANOMALY":199.7761,"EPHEMERIS_TYPE":0,"CLASSIFICATION_TYPE":"U","NORAD_CAT_ID":47997,"ELEMENT_SET_NO":999,"REV_AT_EPOCH":578,"BSTAR":0.0025024036,"MEAN_MOTION_DOT":0.00072537,"MEAN_MOTION_DDOT":0},{"OBJECT_NAME":"STARLINK-2270","OBJECT_ID":"2021-024Z","EPOCH":"2026-02-15T20:10:14.136096","MEAN_MOTION":15.06403235,"ECCENTRICITY":0.00014367,"INCLINATION":53.0538,"RA_OF_ASC_NODE":339.9063,"ARG_OF_PERICENTER":103.1487,"MEAN_ANOMALY":256.9662,"EPHEMERIS_TYPE":0,"CLASSIFICATION_TYPE":"U","NORAD_CAT_ID":48000,"ELEMENT_SET_NO":999,"REV_AT_EPOCH":27254,"BSTAR":-4.3354493e-5,"MEAN_MOTION_DOT":-9.27e-6,"MEAN_MOTION_DDOT":0},{"OBJECT_NAME":"STARLINK-2153","OBJECT_ID":"2021-024AJ","EPOCH":"2026-02-15T06:27:19.352736","MEAN_MOTION":15.30194312,"ECCENTRICITY":0.0001336,"INCLINATION":53.1593,"RA_OF_ASC_NODE":53.5437,"ARG_OF_PERICENTER":90.5051,"MEAN_ANOMALY":269.6103,"EPHEMERIS_TYPE":0,"CLASSIFICATION_TYPE":"U","NORAD_CAT_ID":48009,"ELEMENT_SET_NO":999,"REV_AT_EPOCH":27146,"BSTAR":5.6912e-5,"MEAN_MOTION_DOT":1.326e-5,"MEAN_MOTION_DDOT":0},{"OBJECT_NAME":"STARLINK-2226","OBJECT_ID":"2021-024AK","EPOCH":"2026-02-15T22:00:01.999584","MEAN_MOTION":15.2662159,"ECCENTRICITY":0.00017164,"INCLINATION":53.141,"RA_OF_ASC_NODE":73.4616,"ARG_OF_PERICENTER":67.1328,"MEAN_ANOMALY":22.5523,"EPHEMERIS_TYPE":0,"CLASSIFICATION_TYPE":"U","NORAD_CAT_ID":48010,"ELEMENT_SET_NO":999,"REV_AT_EPOCH":578,"BSTAR":0.042708504,"MEAN_MOTION_DOT":0.01237854,"MEAN_MOTION_DDOT":0},{"OBJECT_NAME":"STARLINK-2285","OBJECT_ID":"2021-024AU","EPOCH":"2026-02-15T22:00:01.999584","MEAN_MOTION":15.29333252,"ECCENTRICITY":0.00015565,"INCLINATION":53.1555,"RA_OF_ASC_NODE":47.9412,"ARG_OF_PERICENTER":84.2618,"MEAN_ANOMALY":127.9114,"EPHEMERIS_TYPE":0,"CLASSIFICATION_TYPE":"U","NORAD_CAT_ID":48019,"ELEMENT_SET_NO":999,"REV_AT_EPOCH":568,"BSTAR":0.0017295549,"MEAN_MOTION_DOT":0.00049853,"MEAN_MOTION_DDOT":0}]
